GLOBALSTAR M023         
1 25621U 99004A   25337.16228139 -.00000115  00000+0 -64080-4 0  9990
2 25621  52.0112 258.9050 0010187 136.7735   3.1193 12.62509577237077
GLOBALSTAR M040         
1 25622U 99004B   25337.20724851 -.00000045  00000+0  32701-3 0  9993
2 25622  51.9918 263.1719 0001576  47.8833 111.1445 12.62024310236596
GLOBALSTAR M036         
1 25623U 99004C   25336.68677421 -.00000052  00000+0  44178-3 0  9994
2 25623  51.9936 156.1852 0010896  18.8562  61.4296 11.86618119198980
GLOBALSTAR M038         
1 25624U 99004D   25337.16919519 -.00000072  00000+0  19424-3 0  9994
2 25624  51.9991 304.9189 0002254  44.7619 328.1275 12.32536744223218
GLOBALSTAR M022         
1 25649U 99012A   25337.08489383 -.00000038  00000+0  58354-3 0  9999
2 25649  52.0012 191.7582 0003274 127.1598  36.8390 12.02507501196693
GLOBALSTAR M041         
1 25650U 99012B   25336.60779419 -.00000100  00000+0 -18479-3 0  9995
2 25650  52.0024  79.6382 0000483 286.3287  73.7497 11.96681094198447
GLOBALSTAR M046         
1 25651U 99012C   25336.78930962 -.00000022  00000+0  73516-3 0  9992
2 25651  52.0032 136.5397 0001524 195.4621 272.6690 12.09418420204062
GLOBALSTAR M037         
1 25652U 99012D   25337.12224926 -.00000076  00000+0  15408-3 0  9993
2 25652  52.0026  29.5818 0002146 190.2518 190.9057 12.62457055232611
